post_id,street_name,street_num,latitude,longitude,analysis_neighborhood
591-19310,OCEAN AVE,1931,37.7255629998,-122.4632733015,West of Twin Peaks
542-00070,LARKIN ST,7,37.7780340993,-122.4165394974,Tenderloin
202-06510,02ND ST,651,37.7809138027,-122.3907597975,Financial District/South Beach
691-15150,UNION ST,1515,37.7984068011,-122.4246380978,Marina
650-36390,SACRAMENTO ST,3639,37.7873140004,-122.453414602,Presidio Heights
470-05530,HOWARD ST,553,37.7874650982,-122.3972296991,Financial District/South Beach
401-07040,ELLIS ST,704,37.7842713025,-122.4180065987,Tenderloin
680-12040,TARAVAL ST,1204,37.742978298,-122.4791979005,Sunset/Parkside
218-34330,18TH ST,3433,37.7617031009,-122.4206442998,Mission
614-11010,POST ST,1101,37.7867303015,-122.4200524983,Tenderloin
440-35250,GEARY BLVD,3525,37.7812041015,-122.4571883974,Lone Mountain/USF
725-03570,WEST PORTAL AVE,357,37.73707960070001,-122.4699435977,West of Twin Peaks
114-04030,14TH AVE,403,37.7804219511,-122.4729042447,Outer Richmond
701-10010,VAN NESS AVE,1001,37.7848593992,-122.421378398,Western Addition
445-00690,GREEN ST,69,37.800531898500005,-122.4003763997,Financial District/South Beach
359-08010,CLAY ST,801,37.7942113009,-122.4063923989,Chinatown
363-12200,COLUMBUS AVE,1220,37.8057365016,-122.4178772994,North Beach
224-33450,24TH ST,3345,37.7520712995,-122.4201276002,Mission
546-27220,LEAVENWORTH ST,2722,37.8066126005,-122.4187912007,North Beach
571-09060,MONTGOMERY ST,906,37.7975668003,-122.4036740025,North Beach
490-23370,IRVING ST,2337,37.763219700099995,-122.4833306984,Sunset/Parkside
686-03260,TURK ST,326,37.7827533008,-122.4148974993,Tenderloin
606-04050,PINE ST,405,37.7917974022,-122.4028801021,Financial District/South Beach
657-25430,SAN BRUNO AVE,2543,37.7293311012,-122.4042121989,Portola
133-18100,33RD AVE,1810,37.7533224997,-122.4913279002,Sunset/Parkside
904-00150,09TH AVE,330,37.7820508973,-122.4673365017,Inner Richmond
847-03570,JEFFERSON ST,357,37.8077722983,-122.4188637992,North Beach
334-30020,BUCHANAN ST,3002,37.7976711997,-122.4321696011,Marina
650-16580,SACRAMENTO ST,1658,37.7915642009,-122.4207595007,Nob Hill
690-08150,ULLOA ST,815,37.740702700700005,-122.4655653999,West of Twin Peaks
684-00730,TOWNSEND ST,73,37.7808995982,-122.3900051021,Mission Bay
605-00200,PAGE ST,20,37.774254699100005,-122.4214961973,Hayes Valley
664-08060,STOCKTON ST,806,37.7933879019,-122.4076931977,Chinatown
471-10400,HARRISON ST,1040,37.7765181986,-122.4051902999,South of Market
340-00345,BLUXOME ST,34,37.7769687985,-122.3968130012,South of Market
568-23500,MISSION ST,2350,37.7587662999,-122.4191565008,Mission
402-01060,ELM ST,106,37.7816933979,-122.4192201027,Tenderloin
443-04090,GOUGH ST,409,37.7771852975,-122.4231261981,Hayes Valley
224-32200,24TH ST,3220,37.7523625985,-122.4171672014,Mission
445-00850,GREEN ST,85,37.80046550270001,-122.4009002016,Financial District/South Beach
217-33180,17TH ST,3318,37.7634407979,-122.4203292017,Mission
701-04210,VAN NESS AVE,421,37.779695507700005,-122.420358479,Hayes Valley
360-09300,CLEMENT ST,930,37.782792299,-122.4694251993,Inner Richmond
107-04030,07TH AVE,403,37.7806865972,-122.4654064008,Inner Richmond
446-00530,GROVE ST,53,37.7785558046,-122.4169272166,Tenderloin
327-00560,BROADWAY,56,37.7989182984,-122.3990371001,Financial District/South Beach
229-00410,29TH ST,41,37.7439118017,-122.4222854988,Bernal Heights
363-07190,COLUMBUS AVE,719,37.801473599800005,-122.412038801,Chinatown
568-02392,MISSION ST,239,37.7912985002,-122.3954834023,Financial District/South Beach
202-05750,02ND ST,575,37.7822198988,-122.3923903012,Financial District/South Beach
225-33210,25TH ST,3321,37.7506695033,-122.417016115,Mission
470-05120,HOWARD ST,514,37.7882802998,-122.3964819998,Financial District/South Beach
441-09680,GENEVA AVE,968,37.7157860015,-122.4399550983,Excelsior
440-63060,GEARY BLVD,6306,37.780112001,-122.4872025007,Outer Richmond
110-02970,10TH AVE,297,37.7828779005,-122.4687826985,Inner Richmond
384-06050,DIVISADERO ST,605,37.775204402300005,-122.4379517005,Hayes Valley
443-08230,GOUGH ST,823,37.7812659991,-122.4239486975,Western Addition
650-34090,SACRAMENTO ST,3409,37.7878742021,-122.4490163994,Presidio Heights
330-03800,BRANNAN ST,380,37.7805826002,-122.3938226008,Financial District/South Beach
686-02050,TURK ST,205,37.7829116014,-122.4126421974,Tenderloin
445-13400,GREEN ST,1340,37.7979096984,-122.4219040998,Russian Hill
472-03060,HYDE ST,306,37.7837500603,-122.4158475332,Tenderloin
471-11006,HARRISON ST,1122,37.7750337386,-122.4070704353,South of Market
561-00138,MAIN ST,13,37.7927985982,-122.3960029014,Financial District/South Beach
444-04170,GRANT AVE,417,37.7911300016,-122.4057086983,Financial District/South Beach
419-12180,FRANKLIN ST,1218,37.7860143975,-122.4230464024,Western Addition
667-01040,SOUTH VAN NESS AVE,104,37.7723965988,-122.4186272004,Mission
500-05160,JACKSON ST,516,37.7963802022,-122.4041125995,Chinatown
415-14180,FILLMORE ST,1418,37.7828822982,-122.4325553027,Western Addition
464-05320,HAYES ST,532,37.7765791834,-122.4258509214,Hayes Valley
571-00030,MONTGOMERY ST,3,37.7892730021,-122.4021007975,Financial District/South Beach
470-09640,HOWARD ST,964,37.7804355984,-122.4064185002,South of Market
208-02590,08TH ST,259,37.775318999700005,-122.4103335028,South of Market
415-13230,FILLMORE ST,1323,37.7820522998,-122.4325230994,Western Addition
224-39480,24TH ST,3948,37.7515219998,-122.4312159975,Noe Valley
413-21470,FILBERT ST,2147,37.7979923998,-122.4354802014,Marina
440-59190,GEARY BLVD,5919,37.7800232981,-122.4832409003,Outer Richmond
444-00040,GRANT AVE,4,37.7870658011,-122.4048341976,Financial District/South Beach
121-04120,21ST AVE,412,37.7798826435,-122.4803516627,Outer Richmond
670-01200,STILLMAN ST,120,37.7814909023,-122.3967554008,South of Market
568-31120,MISSION ST,3112,37.7477519986,-122.4186004006,Bernal Heights
471-10580,HARRISON ST,1058,37.776105401,-122.4057152026,South of Market
418-05180,FOLSOM ST,518,37.7869589989,-122.3950616975,Financial District/South Beach
700-10410,VALENCIA ST,1041,37.7558876973,-122.4209132974,Mission
564-01030,MCCOPPIN ST,103,37.7715026018,-122.4227197987,Mission
700-04500,VALENCIA ST,450,37.7652350002,-122.4220253022,Mission
593-04010,O'FARRELL ST,401,37.7859378987,-122.4114693009,Tenderloin
906-00160,18TH ST,4116,37.7612183028,-122.4358894003,Castro/Upper Market
720-04430,WASHINGTON ST,443,37.7956884102,-122.401338089,Chinatown
370-01190,CAPP ST,119,37.7644700006,-122.4185643026,Mission
386-03210,DRUMM ST,321,37.7970466976,-122.3972037991,Financial District/South Beach
612-23260,POLK ST,2326,37.7984193013,-122.4221895986,Russian Hill
209-02480,09TH ST,248,37.774141311600005,-122.4122458232,South of Market
359-09160,CLAY ST,916,37.7940221996,-122.4085195025,Chinatown
651-10130,SANSOME ST,1013,37.7998439584,-122.4025909032,North Beach
831-04310,EMBARCADERO SOUTH,431,37.7887425003,-122.3878138994,Financial District/South Beach
386-03003,DRUMM ST,300,37.7966027026,-122.3971135986,Financial District/South Beach
444-08030,GRANT AVE,803,37.7943936017,-122.4063715001,Chinatown
440-63120,GEARY BLVD,6312,37.7801028983,-122.487405801,Outer Richmond
118-24060,18TH AVE,2406,37.7428670981,-122.4745386017,West of Twin Peaks
864-04600,SPEAR ST,460,37.7881009997,-122.3886306991,Financial District/South Beach
330-05080,BRANNAN ST,508,37.778133799200006,-122.3969264978,South of Market
224-30080,24TH ST,3008,37.7526580998,-122.4123344977,Mission
324-08330,BATTERY ST,833,37.7993121975,-122.4012748,Financial District/South Beach
470-10940,HOWARD ST,1094,37.7781305023,-122.4093354975,South of Market
320-01060,BACON ST,106,37.727606899,-122.4039255993,Portola
352-05440,CASTRO ST,544,37.7595307016,-122.4349738003,Castro/Upper Market
705-14420,VALLEJO ST,1442,37.7969772005,-122.4217621998,Russian Hill
616-02050,POWELL ST,205,37.7865720053,-122.4081384167,Tenderloin
825-07110,DAVIS ST,711,37.7994357021,-122.3988858012,Financial District/South Beach
700-16310,VALENCIA ST,1631,37.747261702,-122.4200875011,Bernal Heights
415-21040,FILLMORE ST,2104,37.7891520009,-122.4338211992,Pacific Heights
680-07120,TARAVAL ST,712,37.7432005972,-122.4741348007,West of Twin Peaks
462-04100,HAIGHT ST,410,37.772318602400006,-122.4292696023,Hayes Valley
400-08430,EDDY ST,843,37.7826662016,-122.4221906995,Western Addition
330-09540,BRANNAN ST,954,37.7703247991,-122.4068113991,South of Market
359-07360,CLAY ST,736,37.7943433997,-122.405988598,Chinatown
701-04070,VAN NESS AVE,407,37.7793265999,-122.4202597995,Hayes Valley
467-01210,HICKORY ST,121,37.7755542015,-122.4219322016,Hayes Valley
464-04280,HAYES ST,428,37.776790398100005,-122.4241960977,Hayes Valley
591-26300,OCEAN AVE,2630,37.7320605003,-122.473863702,West of Twin Peaks
470-00730,HOWARD ST,73,37.7914038998,-122.3922526983,Financial District/South Beach
442-02310,GOLDEN GATE AVE,231,37.7816681013,-122.414864402,Tenderloin
490-14150,IRVING ST,1415,37.7636516028,-122.4733902977,Inner Sunset
490-21290,IRVING ST,2129,37.7633249991,-122.4809999985,Sunset/Parkside
360-07170,CLEMENT ST,717,37.782757,-122.466965798,Inner Richmond
568-12320,MISSION ST,1232,37.7768652988,-122.4140293018,South of Market
120-13120,20TH AVE,1312,37.7631965996,-122.4780911987,Sunset/Parkside
219-33290,19TH ST,3329,37.760246001999995,-122.4182539989,Mission
330-03820,BRANNAN ST,382,37.7805391987,-122.3938775972,Financial District/South Beach
446-03160,GROVE ST,316,37.778003499700006,-122.4222197008,Hayes Valley
563-05100,MCALLISTER ST,510,37.7800825973,-122.4208660011,Western Addition
324-06320,BATTERY ST,632,37.7973074977,-122.4007124973,Financial District/South Beach
720-07370,WASHINGTON ST,737,37.7951450002,-122.4061468986,Chinatown
502-26280,JONES ST,2628,37.806023498,-122.4169862975,North Beach
490-06070,IRVING ST,607,37.7640418027,-122.4645080005,Inner Sunset
324-06130,BATTERY ST,613,37.7971337018,-122.4008374994,Chinatown
593-04400,OFARRELL ST,440,37.7858766996,-122.4127860979,Tenderloin
214-06180,14TH ST,618,37.7678795018,-122.4275250991,Castro/Upper Market
470-11820,HOWARD ST,1182,37.7766302981,-122.4112326016,South of Market
418-02170,FOLSOM ST,217,37.7889497009,-122.3922451992,Financial District/South Beach
204-04130,04TH ST,413,37.7805363216,-122.3991450696,South of Market
352-04460,CASTRO ST,446,37.7610287991,-122.4351132025,Castro/Upper Market
333-14030,BAY SHORE BLVD,1403,37.7267055201,-122.4017466814,Bayview Hunters Point
415-18200,FILLMORE ST,1820,37.7866901019,-122.4333253984,Pacific Heights
120-12950,20TH AVE,1295,37.7637166017,-122.4783044008,Sunset/Parkside
470-05620,HOWARD ST,562,37.7875321981,-122.3974319992,Financial District/South Beach
681-01130,TAYLOR ST,113,37.7836493988,-122.4109390003,Tenderloin
360-05230,CLEMENT ST,523,37.7828469993,-122.4649938994,Inner Richmond
385-00160,DOLORES ST,16,37.7683653046,-122.4268734176,Castro/Upper Market
440-11320,GEARY BLVD,1132,37.7856061988,-122.4225703997,Western Addition
902-00110,CALIFORNIA ST,2450,37.788876499,-122.4351670982,Pacific Heights
363-03130,COLUMBUS AVE,313,37.7981200003,-122.4071973019,Chinatown
327-02210,BROADWAY,221,37.7984028001,-122.4018037987,Financial District/South Beach
657-25090,SAN BRUNO AVE,2509,37.7300949999,-122.4045283978,Portola
492-10001,IOWA ST,1007,37.7539117611,-122.3914116177,Potrero Hill
701-04060,VAN NESS AVE,406,37.77939760020001,-122.4199481995,Tenderloin
443-00070,GOUGH ST,7,37.7719539002,-122.4207314995,Mission
203-03600,03RD ST,360,37.7827751999,-122.3978220985,South of Market
614-13060,POST ST,1306,37.7864313022,-122.4235235003,Western Addition
568-28290,MISSION ST,2829,37.7513517019,-122.4182645992,Mission
336-25370,BUSH ST,2537,37.7861485024,-122.4397724007,Pacific Heights
724-02200,WILLOW ST,220,37.7832811986,-122.4217681007,Western Addition
701-01010,VAN NESS AVE,101,37.776481738600005,-122.4196864295,Hayes Valley
720-04350,WASHINGTON ST,435,37.7957057216,-122.4012028386,Chinatown
568-49020,MISSION ST,4902,37.7199256,-122.4385158026,Outer Mission
664-11010,STOCKTON ST,1101,37.7961249006,-122.4083996971,Chinatown
446-01150,GROVE ST,115,37.7783127976,-122.4188354013,Tenderloin
681-07010,TAYLOR ST,701,37.7889886991,-122.4119930972,Nob Hill
701-04110,VAN NESS AVE,411,37.7794378313,-122.4203197897,Hayes Valley
612-15130,POLK ST,1513,37.7908499007,-122.4208208003,Nob Hill
665-01450,STEUART ST,145,37.7927891993,-122.3924828988,Financial District/South Beach
650-07090,SACRAMENTO ST,709,37.7934647025,-122.4050806982,Chinatown
418-09650,FOLSOM ST,965,37.778931102600005,-122.4049219002,South of Market
462-04110,HAIGHT ST,411,37.772196601000005,-122.4292501004,Hayes Valley
362-06050,COLE ST,605,37.7692433716,-122.4507210718,Haight Ashbury
700-10420,VALENCIA ST,1042,37.7557829012,-122.4211201013,Mission
720-05590,WASHINGTON ST,559,37.7955097024,-122.4028995984,Chinatown
568-15320,MISSION ST,1532,37.7736054984,-122.4181579982,Mission
418-07250,FOLSOM ST,725,37.783078798,-122.3996700008,South of Market
700-04580,VALENCIA ST,458,37.7650619027,-122.4220087004,Mission
500-06010,JACKSON ST,601,37.7961526,-122.4052855016,Chinatown
568-28160,MISSION ST,2816,37.7517115985,-122.4184811988,Mission
355-02300,CHURCH ST,230,37.766485697499995,-122.4289612991,Castro/Upper Market
336-05360,BUSH ST,536,37.7904884004,-122.4066802,Financial District/South Beach
568-06600,MISSION ST,660,37.7869607982,-122.401244899,Financial District/South Beach
581-23200,NORIEGA ST,2320,37.7538003017,-122.4886928981,Sunset/Parkside
360-22280,CLEMENT ST,2228,37.7821583331,-122.4833619678,Outer Richmond
831-04260,EMBARCADERO SOUTH,426,37.7888070018,-122.3882852976,Financial District/South Beach
582-00210,NEW MONTGOMERY ST,21,37.7882042983,-122.4013212022,Financial District/South Beach
363-00300,COLUMBUS AVE,30,37.7962094014,-122.4041205009,Chinatown
440-37160,GEARY BLVD,3716,37.7813701973,-122.4595311002,Inner Richmond
520-04030,KEARNY ST,403,37.7919320994,-122.4043593013,Financial District/South Beach
594-01430,OLIVE ST,143,37.7843004995,-122.4208134019,Tenderloin
568-51070,MISSION ST,5107,37.7169884023,-122.4405010005,Excelsior
568-32430,MISSION ST,3243,37.744480798800005,-122.4204852001,Bernal Heights
352-14070,CASTRO ST,1407,37.7503019021,-122.4338852984,Noe Valley
720-07390,WASHINGTON ST,739,37.7951348972,-122.4062269011,Chinatown
350-15120,CALIFORNIA ST,1512,37.7908153002,-122.4194897988,Nob Hill
418-07320,FOLSOM ST,732,37.7831484013,-122.3998883997,South of Market
472-08020,HYDE ST,802,37.7883317982,-122.4167823994,Nob Hill
700-07290,VALENCIA ST,729,37.761078699399995,-122.4214104002,Mission
108-02940,08TH AVE,294,37.7830451977,-122.4665081014,Inner Richmond
462-15430,HAIGHT ST,1543,37.7697699004,-122.4483100006,Haight Ashbury
644-03560,RITCH ST,356,37.7785173998,-122.3934618995,South of Market
336-11060,BUSH ST,1106,37.7893585156,-122.4156079931,Nob Hill
490-14260,IRVING ST,1426,37.763803499599994,-122.4734382981,Inner Sunset
568-14080,MISSION ST,1408,37.7751060993,-122.4162464996,South of Market
650-07360,SACRAMENTO ST,736,37.7934522022,-122.4058206023,Chinatown
214-03070,14TH ST,307,37.7681970977,-122.4203364995,Mission
470-05660,HOWARD ST,566,37.7874195007,-122.397575,Financial District/South Beach
203-03003,03RD ST,300,37.783306,-122.39818,Financial District/South Beach
442-03030,GOLDEN GATE AVE,303,37.7815487989,-122.4157621988,Tenderloin
546-02160,LEAVENWORTH ST,216,37.7833826979,-122.4140924008,Tenderloin
360-19120,CLEMENT ST,1912,37.7823105016,-122.4800026023,Outer Richmond
490-20020,IRVING ST,2002,37.763536798699995,-122.4795009007,Sunset/Parkside
826-06360,DELANCEY ST,636,37.7832441003,-122.3895391018,Financial District/South Beach
920-00070,POTRERO AVE,993,37.7577722006,-122.4064697974,Mission
650-36420,SACRAMENTO ST,3642,37.7874399972,-122.4532719978,Presidio Heights
520-01130,KEARNY ST,113,37.7894367007,-122.4038455018,Financial District/South Beach
891-00710,TERRY A FRANCOIS BLVD,501,37.770087300700006,-122.3860860986,Mission Bay
568-09600,MISSION ST,960,37.7816994999,-122.4079057013,South of Market
614-00200,POST ST,20,37.789041901800005,-122.4029086006,Financial District/South Beach
109-02910,09TH AVE,291,37.7830777978,-122.467718398,Inner Richmond
490-08130,IRVING ST,813,37.7639448018,-122.4667163973,Inner Sunset
684-02120,TOWNSEND ST,212,37.778590797300005,-122.3932331015,South of Market
401-01080,ELLIS ST,108,37.7855096002,-122.4082215984,Tenderloin
440-04100,GEARY ST,410,37.7871481002,-122.4103744009,Tenderloin
321-03240,BALBOA ST,324,37.7773575009,-122.4627931972,Inner Richmond
815-13190,BATTERY ST,1319,37.8038776022,-122.4021895004,Financial District/South Beach
725-00570,WEST PORTAL AVE,57,37.7398313013,-122.4667163023,West of Twin Peaks
568-52330,MISSION ST,5233,37.7148121026,-122.4422682018,Excelsior
446-00260,GROVE ST,26,37.7787997973,-122.4158902017,Tenderloin
440-53050,GEARY BLVD,5305,37.7803348136,-122.4764245486,Outer Richmond
327-15040,BROADWAY,1504,37.7959960026,-122.4220359195,Russian Hill
105-02880,05TH AVE,288,37.7832684022,-122.4633028002,Inner Richmond
122-24030,22ND AVE,2403,37.7426757001,-122.4789965001,Sunset/Parkside
470-06440,HOWARD ST,644,37.7858703526,-122.3995401422,Financial District/South Beach
662-03080,SAINT JOSEPHS AVE,308,37.7824861974,-122.4420307984,Western Addition
701-16170,VAN NESS AVE,1617,37.7908815005,-122.4225955007,Pacific Heights
680-08140,TARAVAL ST,814,37.7431526975,-122.4752269012,West of Twin Peaks
644-03060,RITCH ST,306,37.7794883986,-122.3946782981,South of Market
128-05100,28TH AVE,510,37.779562299000006,-122.4878477005,Outer Richmond
612-15210,POLK ST,1521,37.7910948981,-122.4208703988,Nob Hill
470-11280,HOWARD ST,1128,37.7775181987,-122.4101098009,South of Market
326-08150,BEACH ST,815,37.8062919983,-122.4228466001,Russian Hill
202-07210,02ND ST,721,37.7801995975,-122.3898661022,Mission Bay
570-00360,MINNA ST,36,37.7886286059,-122.3979804162,Financial District/South Beach
724-02020,WILLOW ST,202,37.7833519027,-122.4212129002,Western Addition
363-05130,COLUMBUS AVE,513,37.7998103005,-122.4096332003,Chinatown
611-03350,PARNASSUS AVE,335,37.7640113988,-122.4557134004,Inner Sunset
869-00320,TERRY A FRANCOIS BLVD,32,37.776272899400006,-122.3886584991,Mission Bay
568-47700,MISSION ST,4770,37.72165738,-122.4372064713,Outer Mission
202-06280,02ND ST,628,37.7811861978,-122.3914042988,Financial District/South Beach
350-14450,CALIFORNIA ST,1445,37.7907294025,-122.4188061987,Nob Hill
591-26280,OCEAN AVE,2628,37.73204430090001,-122.473827699,West of Twin Peaks
831-04190,EMBARCADERO SOUTH,419,37.7891072974,-122.3879341015,Financial District/South Beach
666-24170,SUTTER ST,2417,37.7851071012,-122.4405533985,Japantown
206-00260,06TH ST,26,37.7815392994,-122.4095745997,South of Market
585-02180,NORTH POINT ST,218,37.8069371981,-122.411261698,North Beach
472-03090,HYDE ST,309,37.7837988985,-122.4160127004,Tenderloin
330-09090,BRANNAN ST,909,37.7709677973,-122.4056876988,South of Market
683-08640,THORNTON AVE,864,37.7304070973,-122.4046260973,Portola
440-11310,GEARY BLVD,1131,37.7854748991,-122.4225370006,Western Addition
363-12260,COLUMBUS AVE,1226,37.8058465001,-122.4180341025,North Beach
223-33430,23RD ST,3343,37.753684703,-122.4203402158,Mission
820-01080,BRYANT ST,108,37.7867564977,-122.3890889992,Financial District/South Beach
902-00570,CALIFORNIA ST,2450,37.7892188997,-122.4349301026,Pacific Heights
415-30290,FILLMORE ST,3029,37.7978464988,-122.4357212984,Marina
540-16010,LAGUNA ST,1601,37.7858865009,-122.4282367003,Japantown
680-10130,TARAVAL ST,1013,37.7428982005,-122.4772641004,Sunset/Parkside
363-10160,COLUMBUS AVE,1016,37.8040715986,-122.4154696983,North Beach
327-03170,BROADWAY,317,37.7982701984,-122.402854202,North Beach
380-03170,DAVIS ST,317,37.7958671012,-122.3981672988,Financial District/South Beach
205-02270,05TH ST,227,37.7810403974,-122.4042057001,South of Market
720-18060,WASHINGTON ST,1806,37.793052799,-122.4232743007,Pacific Heights
422-02090,FRONT ST,209,37.7937456974,-122.3989434016,Financial District/South Beach
350-35390,CALIFORNIA ST,3539,37.7863797982,-122.4526799002,Presidio Heights
878-00700,VALLEJO ST,70,37.7998350997,-122.3993556012,Financial District/South Beach
700-04380,VALENCIA ST,438,37.765572098,-122.4220576004,Mission
340-00743,BLUXOME ST,74,37.776359797400005,-122.3975865,South of Market
471-08350,HARRISON ST,835,37.779829899700005,-122.400671398,South of Market
440-08310,GEARY ST,831,37.7861061011,-122.4175669008,Tenderloin
413-21370,FILBERT ST,2137,37.798026598,-122.4352111981,Marina
581-25200,NORIEGA ST,2520,37.7537035019,-122.490883799,Sunset/Parkside
542-11260,LARKIN ST,1126,37.7886639004,-122.4185279028,Nob Hill
470-16570,HOWARD ST,1657,37.7702818,-122.4175173973,Mission
413-07050,FILBERT ST,705,37.8011020021,-122.4110602026,North Beach
203-03400,03RD ST,340,37.7831766986,-122.3983232022,South of Market
591-26270,OCEAN AVE,2627,37.7318774004,-122.4738774986,West of Twin Peaks
440-59200,GEARY BLVD,5920,37.7802938332,-122.4832810274,Outer Richmond
606-01140,PINE ST,114,37.7923739989,-122.3992722013,Financial District/South Beach
321-34210,BALBOA ST,3421,37.7757110995,-122.4959101973,Outer Richmond
525-00180,KAPLAN LN,18,37.7849935991,-122.3992394001,Financial District/South Beach
350-34250,CALIFORNIA ST,3425,37.7866199006,-122.4507933014,Presidio Heights
464-03280,HAYES ST,328,37.7770381811,-122.422253864,Hayes Valley
568-19190,MISSION ST,1919,37.7660597012,-122.4196780005,Mission
360-05100,CLEMENT ST,510,37.7830016052,-122.4648723174,Inner Richmond
470-16530,HOWARD ST,1653,37.7703933016,-122.4174812992,Mission
350-05260,CALIFORNIA ST,526,37.7928006993,-122.4037308988,Financial District/South Beach
326-04360,BEACH ST,436,37.8071533003,-122.4170524978,North Beach
120-03930,20TH AVE,393,37.7806292985,-122.479466602,Outer Richmond
331-08310,BRYANT ST,831,37.775240071800006,-122.4033744164,South of Market
855-00540,LOMBARD ST,54,37.804124801300006,-122.4031486024,Financial District/South Beach
359-24400,CLAY ST,2440,37.7907943007,-122.4340385978,Pacific Heights
363-06350,COLUMBUS AVE,635,37.8008597986,-122.4111520012,Chinatown
444-00360,GRANT AVE,36,37.7873615985,-122.4048942008,Financial District/South Beach
325-04310,BAY ST,431,37.805396900400005,-122.4147993025,North Beach
568-51130,MISSION ST,5113,37.7168261007,-122.4406239015,Excelsior
680-15230,TARAVAL ST,1523,37.7426513982,-122.4828798023,Sunset/Parkside
725-02210,WEST PORTAL AVE,221,37.7384481978,-122.468317799,West of Twin Peaks
380-03130,DAVIS ST,313,37.7957597011,-122.3981455003,Financial District/South Beach
324-01100,BATTERY ST,110,37.7925677997,-122.3997468014,Financial District/South Beach
568-30030,MISSION ST,3003,37.7488763024,-122.4180284978,Mission
658-00307,SPEAR ST,30,37.7932484996,-122.3950773996,Financial District/South Beach
360-19360,CLEMENT ST,1936,37.7822969005,-122.4802964998,Outer Richmond
653-10690,SANCHEZ ST,1069,37.7517820009,-122.4295971,Noe Valley
650-16330,SACRAMENTO ST,1633,37.7915375018,-122.4201156979,Nob Hill
568-10530,MISSION ST,1053,37.7799453017,-122.4098744986,South of Market
209-05370,09TH ST,537,37.7705612023,-122.4074479991,South of Market
471-06460,HARRISON ST,646,37.7833709017,-122.3965029993,Financial District/South Beach
720-17200,WASHINGTON ST,1720,37.7932499972,-122.4217616019,Russian Hill
359-25010,CLAY ST,2501,37.7906415992,-122.4343267006,Pacific Heights
418-09330,FOLSOM ST,933,37.779533001500006,-122.4041620024,South of Market
700-09520,VALENCIA ST,952,37.7571781025,-122.4212536977,Mission
546-00770,LEAVENWORTH ST,77,37.7817256405,-122.4139119562,Tenderloin
562-26190,MASON ST,2619,37.8080913973,-122.4141648986,North Beach
384-18220,DIVISADERO ST,1822,37.7868365002,-122.4400814024,Pacific Heights
440-39120,GEARY BLVD,3912,37.781278801,-122.4615580009,Inner Richmond
612-18110,POLK ST,1811,37.793557898,-122.4213644003,Russian Hill
359-17500,CLAY ST,1750,37.7922664982,-122.4223952011,Russian Hill
306-22090,ALAMEDA ST,2209,37.7683465023,-122.4070930981,Mission
224-31640,24TH ST,3164,37.7524513014,-122.415716998,Mission
440-31040,GEARY BLVD,3104,37.7819594004,-122.4524032024,Presidio Heights
214-02210,14TH ST,221,37.7682959986,-122.4186997988,Mission
106-03030,06TH AVE,303,37.7827136991,-122.464476099,Inner Richmond
700-09290,VALENCIA ST,929,37.7579189569,-122.4211078384,Mission
691-18200,UNION ST,1820,37.7978904367,-122.4296783541,Marina
847-00170,JEFFERSON ST,17,37.8085017976,-122.4130601023,North Beach
651-03220,SANSOME ST,322,37.7937026982,-122.4011887011,Financial District/South Beach
336-08150,BUSH ST,815,37.789820698,-122.4109222979,Nob Hill
440-54120,GEARY BLVD,5410,37.7805496984,-122.4776947012,Outer Richmond
681-27140,TAYLOR ST,2714,37.807756400600006,-122.4156459027,North Beach
568-03260,MISSION ST,326,37.7906642069,-122.3965566158,Financial District/South Beach
121-13010,21ST AVE,1301,37.7632748027,-122.4793222991,Sunset/Parkside
462-04250,HAIGHT ST,425,37.7721414984,-122.4296835006,Hayes Valley
223-33010,23RD ST,3301,37.7537787993,-122.4187759009,Mission
368-01070,CYRIL MAGNIN ST,107,37.7856643022,-122.4088484977,Tenderloin
681-05290,TAYLOR ST,529,37.7877410975,-122.4117627011,Tenderloin
206-01130,06TH ST,113,37.7806980067,-122.4082096182,South of Market
359-09290,CLAY ST,929,37.7938919001,-122.4089055003,Chinatown
612-23330,POLK ST,2333,37.7985365977,-122.4223702007,Russian Hill
686-03210,TURK ST,321,37.7826259014,-122.4149214995,Tenderloin
470-10390,HOWARD ST,1039,37.778954801000005,-122.4080063009,South of Market
415-22230,FILLMORE ST,2223,37.7904677977,-122.4342219995,Pacific Heights
333-14150,BAY SHORE BLVD,1415,37.7261774074,-122.4015848825,Bayview Hunters Point
470-10830,HOWARD ST,1083,37.7782451419,-122.4089037114,South of Market
614-03260,POST ST,326,37.788415499900005,-122.4078542979,Financial District/South Beach
542-10190,LARKIN ST,1019,37.7875921008,-122.4184623004,Nob Hill
910-00170,20TH AVE,1275,37.7638542996,-122.4784619023,Sunset/Parkside
472-06070,HYDE ST,607,37.7865853001,-122.4165803005,Tenderloin
470-06310,HOWARD ST,631,37.7861022008,-122.3989597016,Financial District/South Beach
206-01360,06TH ST,136,37.7802040008,-122.4078952015,South of Market
380-05180,DAVIS ST,518,37.7977369026,-122.3983854015,Financial District/South Beach
321-34010,BALBOA ST,3401,37.775738201,-122.4953174011,Outer Richmond
490-06060,IRVING ST,606,37.764196499099995,-122.4644919017,Inner Sunset
591-26130,OCEAN AVE,2613,37.7317252018,-122.4735388027,West of Twin Peaks
106-02890,06TH AVE,289,37.7832754989,-122.464516198,Inner Richmond
440-15320,GEARY BLVD,1532,37.7849974994,-122.4290713982,Japantown
443-00450,GOUGH ST,45,37.7726609071,-122.4216234181,Mission
440-39250,GEARY BLVD,3925,37.7809885972,-122.4619515983,Inner Richmond
123-04040,23RD AVE,404,37.7799335,-122.4825041981,Outer Richmond
324-01030,BATTERY ST,103,37.7924167019,-122.3998772015,Financial District/South Beach
568-00460,MISSION ST,46,37.7928182007,-122.3938294013,Financial District/South Beach
330-05140,BRANNAN ST,514,37.7780177993,-122.3970732984,South of Market
327-03120,BROADWAY,312,37.7984397979,-122.4027845987,North Beach
923-00130,ULLOA ST,807,37.740308198,-122.4656448995,West of Twin Peaks
658-02070,SPEAR ST,207,37.7911324994,-122.3921681025,Financial District/South Beach
681-00290,TAYLOR ST,29,37.7830823016,-122.4108242017,Tenderloin
350-34170,CALIFORNIA ST,3417,37.7866409001,-122.4506286026,Presidio Heights
613-07200,PORTOLA DR,720,37.7442813989,-122.4536419974,West of Twin Peaks
569-20360,MARKET ST,2036,37.7689300001,-122.427355902,Castro/Upper Market
606-03180,PINE ST,318,37.7920793974,-122.4015742016,Financial District/South Beach
415-14100,FILLMORE ST,1410,37.7826752988,-122.4325133988,Western Addition
614-06400,POST ST,640,37.7877704007,-122.4130398014,Nob Hill
208-06570,08TH ST,657,37.7703222007,-122.4041179025,South of Market
327-02090,BROADWAY,209,37.7984550026,-122.4013960023,Financial District/South Beach
720-03700,WASHINGTON ST,370,37.795955109,-122.4003510366,Financial District/South Beach
666-23210,SUTTER ST,2321,37.7853241981,-122.4388456025,Japantown
440-21040,GEARY BLVD,2104,37.783854599,-122.4380742998,Japantown
420-01490,FREMONT ST,149,37.7895845015,-122.3954652023,Financial District/South Beach
471-07790,HARRISON ST,779,37.7808355995,-122.3993932025,South of Market
330-04580,BRANNAN ST,458,37.7791478977,-122.3956387022,South of Market
339-03090,BERRY ST,309,37.7737543945,-122.3958123472,Mission Bay
826-06290,DELANCEY ST,629,37.7834291001,-122.3894664028,Financial District/South Beach
563-00050,MCALLISTER ST,5,37.7810431019,-122.4122998972,Tenderloin
205-03160,05TH ST,316,37.7798085985,-122.4029714984,South of Market
664-02020,STOCKTON ST,202,37.7876833015,-122.4065482018,Financial District/South Beach
125-04980,25TH AVE,498,37.7803266001,-122.4846641978,Outer Richmond
209-00590,09TH ST,59,37.776421002000006,-122.4148052984,South of Market
701-21260,VAN NESS AVE,2126,37.7955724996,-122.423217002,Russian Hill
596-01490,OTIS ST,149,37.770519399,-122.4200909992,Mission
650-36200,SACRAMENTO ST,3620,37.7875310973,-122.452556798,Presidio Heights
464-04110,HAYES ST,411,37.7767651015,-122.4234182012,Hayes Valley
591-19550,OCEAN AVE,1955,37.7258203019,-122.4639408027,West of Twin Peaks
583-02660,NOE ST,266,37.7645397995,-122.4332059004,Castro/Upper Market
664-02280,STOCKTON ST,228,37.7883582012,-122.4066842009,Financial District/South Beach
472-08050,HYDE ST,805,37.7884254017,-122.4169572012,Nob Hill
612-12390,POLK ST,1239,37.7884564985,-122.4203361978,Nob Hill
360-02170,CLEMENT ST,217,37.7829998013,-122.4616695975,Inner Richmond
651-08180,SANSOME ST,818,37.7980636013,-122.4020765011,Financial District/South Beach
441-09550,GENEVA AVE,955,37.7160245002,-122.439959401,Excelsior
593-10280,O'FARRELL ST,1028,37.7846743994,-122.422348201,Western Addition
581-24340,NORIEGA ST,2434,37.7537437015,-122.4899749996,Sunset/Parkside
202-04620,02ND ST,462,37.7833131001,-122.3940608983,Financial District/South Beach
215-16510,15TH ST,1651,37.766504702,-122.4218464994,Mission
581-25350,NORIEGA ST,2535,37.7535005984,-122.4911179,Sunset/Parkside
336-14410,BUSH ST,1441,37.7884658025,-122.4216039998,Nob Hill
446-00400,GROVE ST,40,37.778745102600006,-122.4163630025,Tenderloin
503-01910,JORDAN AVE,191,37.7817478021,-122.4567410999,Presidio Heights
593-22030,O'FARRELL ST,2203,37.7821497981,-122.441176498,Western Addition
384-15100,DIVISADERO ST,1510,37.7838071016,-122.4394681991,Japantown
571-08210,MONTGOMERY ST,821,37.7969676004,-122.4036648997,Chinatown
331-19320,BRYANT ST,1932,37.7621262026,-122.4102441014,Mission
419-13240,FRANKLIN ST,1324,37.787134298,-122.4232731999,Western Addition
413-06090,FILBERT ST,609,37.801263499,-122.4098023974,North Beach
360-22120,CLEMENT ST,2212,37.7821716973,-122.4830723011,Outer Richmond
593-04130,OFARRELL ST,413,37.785882002600005,-122.4119057019,Tenderloin
562-00260,MASON ST,26,37.7841187016,-122.4091900994,Tenderloin
400-08200,EDDY ST,820,37.7828431995,-122.4216474013,Western Addition
826-06510,DELANCEY ST,651,37.7831431989,-122.3891051986,Financial District/South Beach
612-11350,POLK ST,1135,37.7875146017,-122.4201454983,Nob Hill
653-10700,SANCHEZ ST,1070,37.7517331009,-122.4297468008,Noe Valley
600-05010,PACIFIC AVE,501,37.7972376988,-122.4038411991,Chinatown
818-01750,BRANNAN ST,175,37.783980849,-122.3892488773,Financial District/South Beach
568-32270,MISSION ST,3227,37.7448303018,-122.4202594978,Bernal Heights
568-26290,MISSION ST,2629,37.7545791984,-122.4185735003,Mission
324-05410,BATTERY ST,541,37.796177701,-122.4006361996,Chinatown
596-00220,OTIS ST,22,37.772673000500006,-122.4193581023,Mission
616-01070,POWELL ST,107,37.7857141064,-122.4079627152,Tenderloin
606-15410,PINE ST,1541,37.7894142986,-122.4215834026,Nob Hill
331-16160,BRYANT ST,1616,37.7663456024,-122.4106435997,Mission
444-13200,GRANT AVE,1320,37.7993420986,-122.4072693975,North Beach
612-11140,POLK ST,1114,37.7871881992,-122.4199226012,Nob Hill
580-01830,NATOMA ST,183,37.7862634015,-122.399920698,Financial District/South Beach
657-24420,SAN BRUNO AVE,2442,37.73144099940001,-122.4052530021,Portola
327-01210,BROADWAY,121,37.7985614025,-122.4005555992,Financial District/South Beach
124-04920,24TH AVE,492,37.7804358943,-122.4836592819,Outer Richmond
350-28430,CALIFORNIA ST,2843,37.7878023022,-122.4418501013,Pacific Heights
542-05230,LARKIN ST,523,37.7830629003,-122.4175551997,Tenderloin
440-34110,GEARY BLVD,3411,37.7812689998,-122.4557243974,Lone Mountain/USF
667-15170,SOUTH VAN NESS AVE,1517,37.748676198400005,-122.4158057009,Mission
568-10610,MISSION ST,1061,37.7798267984,-122.4100247023,South of Market
568-05690,MISSION ST,569,37.7884479993,-122.3991049991,Financial District/South Beach
700-07440,VALENCIA ST,744,37.760796598,-122.4216002,Mission
400-01170,EDDY ST,117,37.7842019004,-122.4099925996,Tenderloin
470-04020,HOWARD ST,402,37.7891504028,-122.395377198,Financial District/South Beach
350-07190,CALIFORNIA ST,719,37.7922864974,-122.4065608976,Financial District/South Beach
359-16540,CLAY ST,1654,37.7924799015,-122.4207167977,Russian Hill
442-05010,GOLDEN GATE AVE,501,37.7811576032,-122.4189115148,Tenderloin
206-01380,06TH ST,138,37.7801631072,-122.4078438151,South of Market
462-16400,HAIGHT ST,1640,37.769691697199995,-122.4498990027,Haight Ashbury
365-04350,CORTLAND AVE,435,37.739133798400005,-122.4166937021,Bernal Heights
802-05740,20TH ST,574,37.7606519032,-122.3868326282,Potrero Hill
680-06250,TARAVAL ST,625,37.7430711974,-122.4733229016,West of Twin Peaks
700-03280,VALENCIA ST,328,37.7673638024,-122.4222292003,Mission
606-15330,PINE ST,1533,37.7894418024,-122.4213670992,Nob Hill
340-00441,BLUXOME ST,44,37.776864097300006,-122.3969465026,South of Market
568-43760,MISSION ST,4376,37.7275997017,-122.4326268003,Outer Mission
444-00100,GRANT AVE,10,37.7871295986,-122.4048471001,Financial District/South Beach
336-04180,BUSH ST,418,37.7907439982,-122.4046743994,Financial District/South Beach
569-18050,MARKET ST,1805,37.7713469716,-122.4238577653,Mission
111-03990,11TH AVE,399,37.7809796006,-122.4697146991,Inner Richmond
490-17120,IRVING ST,1712,37.763666299099995,-122.4765580983,Inner Sunset
411-02190,FELL ST,219,37.776011199600006,-122.4217741021,Hayes Valley
447-21450,GREENWICH ST,2145,37.798923998,-122.4356700012,Marina
225-34010,25TH ST,3401,37.7505819023,-122.4184694977,Mission
440-47250,GEARY BLVD,4725,37.7806008001,-122.4705423002,Inner Richmond
446-00540,GROVE ST,54,37.7787391012,-122.4170383995,Tenderloin
520-01190,KEARNY ST,119,37.7896141008,-122.4038820022,Financial District/South Beach
201-01300,01ST ST,130,37.7891879984,-122.3969636017,Financial District/South Beach
222-32130,22ND ST,3213,37.7553459973,-122.4193435011,Mission
901-00113,LILAC ST,3255,37.7520574023,-122.4176815988,Mission
680-10230,TARAVAL ST,1023,37.7428849012,-122.4775673018,Sunset/Parkside
462-14220,HAIGHT ST,1422,37.7701729973,-122.446125101,Haight Ashbury
568-22250,MISSION ST,2225,37.7609988981,-122.4191881006,Mission
568-46120,MISSION ST,4612,37.7242615976,-122.435234701,Outer Mission
365-05030,CORTLAND AVE,503,37.7390987006,-122.4163297989,Bernal Heights
830-03120,EMBARCADERO NORTH,312,37.7977946875,-122.3960767237,Financial District/South Beach
864-04560,SPEAR ST,456,37.7881389026,-122.3886784983,Financial District/South Beach
700-00100,VALENCIA ST,10,37.772075599900006,-122.4226804988,Mission
324-11480,BATTERY ST,1148,37.802041491,-122.4016633126,Financial District/South Beach
596-00170,OTIS ST,17,37.77247419850001,-122.4193029997,Mission
220-35110,20TH ST,3511,37.7585514997,-122.4196202994,Mission
442-00080,GOLDEN GATE AVE,8,37.7823075008,-122.4109116976,Tenderloin
593-02380,O'FARRELL ST,238,37.7863243994,-122.4092510973,Tenderloin
384-03010,DIVISADERO ST,301,37.772294898400006,-122.437359899,Haight Ashbury
229-00360,29TH ST,36,37.744028600700005,-122.4221759026,Bernal Heights
470-05730,HOWARD ST,573,37.7871597008,-122.3976175019,Financial District/South Beach
701-11270,VAN NESS AVE,1127,37.786373601200005,-122.4216834993,Western Addition
902-00560,CALIFORNIA ST,2450,37.789223101800005,-122.4349032973,Pacific Heights
831-05090,EMBARCADERO SOUTH,509,37.7868596007,-122.3876261,Financial District/South Beach
546-02170,LEAVENWORTH ST,217,37.7833613017,-122.4142424983,Tenderloin
118-03870,18TH AVE,387,37.7808382985,-122.4773332009,Outer Richmond
204-04100,04TH ST,410,37.7804227059,-122.3993078191,South of Market
542-10280,LARKIN ST,1024,37.7876967014,-122.418326698,Nob Hill
350-15570,CALIFORNIA ST,1557,37.7905203019,-122.4204760973,Nob Hill
209-03470,09TH ST,347,37.7729644001,-122.4104644002,South of Market
341-00480,BRADY ST,48,37.772503501600006,-122.4200042018,Mission
411-01110,FELL ST,111,37.77623441590001,-122.4200227292,Hayes Valley
568-48080,MISSION ST,4808,37.7209718012,-122.4377248024,Outer Mission
666-01280,SUTTER ST,128,37.789962301900005,-122.403209198,Financial District/South Beach
910-00230,20TH AVE,1275,37.7638442022,-122.4786430017,Sunset/Parkside
336-06100,BUSH ST,610,37.7903770999,-122.4075615012,Nob Hill
384-07190,DIVISADERO ST,719,37.7764374976,-122.4382057001,Hayes Valley
352-04440,CASTRO ST,444,37.761080800399995,-122.4351180026,Castro/Upper Market
500-07020,JACKSON ST,702,37.7960524977,-122.4067602024,Chinatown
321-05160,BALBOA ST,516,37.777275302300005,-122.4645918028,Inner Richmond
418-05040,FOLSOM ST,504,37.7872294997,-122.3947185983,Financial District/South Beach
350-28280,CALIFORNIA ST,2828,37.7880187006,-122.4414831025,Pacific Heights
224-28700,24TH ST,2870,37.7528027993,-122.4099223984,Mission
500-08430,JACKSON ST,843,37.7956179016,-122.4095713978,Chinatown
340-00549,BLUXOME ST,54,37.7765687023,-122.3973215983,South of Market
363-05020,COLUMBUS AVE,502,37.7997515992,-122.4092317016,North Beach
700-03080,VALENCIA ST,308,37.7678455998,-122.4222753008,Mission
585-05430,NORTH POINT ST,543,37.8061097981,-122.4167790019,North Beach
326-05060,BEACH ST,506,37.80707899750001,-122.4176293013,North Beach
591-16070,OCEAN AVE,1607,37.724481298499995,-122.4594145024,Oceanview/Merced/Ingleside
616-17040,POWELL ST,1704,37.80040660030001,-122.4107924008,Chinatown
423-01700,FULTON ST,170,37.7797630009,-122.4164539014,Tenderloin
651-03200,SANSOME ST,320,37.793644701,-122.4011767988,Financial District/South Beach
691-18330,UNION ST,1833,37.7977286995,-122.429971799,Marina
223-32060,23RD ST,3206,37.7539903977,-122.4168162008,Mission
382-00080,DESMOND ST,8,37.7113363484,-122.4049892053,Visitacion Valley
847-03280,JEFFERSON ST,328,37.807880000100006,-122.4189337992,North Beach
593-06140,O'FARRELL ST,614,37.7855798014,-122.4151327011,Tenderloin
568-10630,MISSION ST,1063,37.7797863026,-122.4100761001,South of Market
444-02170,GRANT AVE,209,37.7889630002,-122.4053365027,Financial District/South Beach
440-34190,GEARY BLVD,3419,37.7812568013,-122.4559998994,Lone Mountain/USF
324-11110,BATTERY ST,1111,37.80175070440001,-122.4017633144,Financial District/South Beach
916-00250,PIERCE ST,3252,37.8000905019,-122.4392375012,Marina
205-06500,05TH ST,650,37.7757675991,-122.3979043026,Mission Bay
339-02210,BERRY ST,221,37.7751965177,-122.3939841089,Mission Bay
306-22060,ALAMEDA ST,2206,37.768469599,-122.4068493021,Mission
440-51250,GEARY BLVD,5125,37.7804047977,-122.4748762024,Outer Richmond
666-18030,SUTTER ST,1803,37.786414002,-122.4301966016,Japantown
815-13160,BATTERY ST,1316,37.8035659016,-122.4019667988,Financial District/South Beach
360-03120,CLEMENT ST,312,37.7830965006,-122.4628029985,Inner Richmond
568-25210,MISSION ST,2521,37.7563338996,-122.4187415016,Mission
725-00170,WEST PORTAL AVE,17,37.740427601,-122.4660605022,West of Twin Peaks
360-11270,CLEMENT ST,1127,37.7825492014,-122.471476698,Inner Richmond
837-10040,FRONT ST,1004,37.8008490977,-122.4002102983,Financial District/South Beach
400-06003,EDDY ST,600,37.7835826007,-122.4148712025,Tenderloin
359-17010,CLAY ST,1701,37.7923132022,-122.4211797972,Nob Hill
915-00160,OCEAN AVE,3000,37.73205039730001,-122.4745673013,West of Twin Peaks
525-00280,KAPLAN LN,28,37.7849571993,-122.3991942999,Financial District/South Beach
915-00104,OCEAN AVE,3000,37.73204940270001,-122.4747171977,West of Twin Peaks
691-16190,UNION ST,1619,37.7981911012,-122.4263349974,Marina
500-01140,JACKSON ST,114,37.7970630982,-122.3990124014,Financial District/South Beach
201-02580,01ST ST,258,37.7873536021,-122.3946966992,Financial District/South Beach
440-08370,GEARY ST,837,37.7860806984,-122.4177630988,Tenderloin
364-05130,COMMERCIAL ST,513,37.7943093021,-122.4020819996,Chinatown
502-07300,JONES ST,730,37.7884742011,-122.4134430994,Nob Hill
222-31060,22ND ST,3106,37.7556003992,-122.4169469026,Mission
330-02940,BRANNAN ST,294,37.7820499026,-122.391965199,Financial District/South Beach
830-06230,EMBARCADERO NORTH,623,37.8011190006,-122.3995828011,Financial District/South Beach
419-15020,FRANKLIN ST,1502,37.7884303973,-122.4235355982,Western Addition
724-02220,WILLOW ST,222,37.7832738002,-122.4218261984,Western Addition
324-05240,BATTERY ST,524,37.7965145026,-122.4005426017,Financial District/South Beach
339-04470,BERRY ST,447,37.7712327604,-122.3990070202,Mission Bay
205-06560,05TH ST,656,37.7756445025,-122.397750098,Mission Bay
368-01090,CYRIL MAGNIN ST,109,37.785724501,-122.4088737999,Tenderloin
568-05500,MISSION ST,550,37.7889119991,-122.3987901022,Financial District/South Beach
544-02060,LARCH ST,206,37.7824010988,-122.4211710018,Western Addition
720-05150,WASHINGTON ST,515,37.7955785011,-122.4023557973,Chinatown
671-01050,SOUTH PARK,105,37.7809426979,-122.3946234972,Financial District/South Beach
686-07340,TURK ST,734,37.7818908979,-122.4216823985,Western Addition
209-02010,09TH ST,201,37.774965099000006,-122.4129483995,South of Market
652-32080,SCOTT ST,3208,37.7995211975,-122.4409751983,Marina
210-04120,10TH ST,412,37.771215700400006,-122.4109693986,South of Market
568-33210,MISSION ST,3321,37.743494098,-122.4211222974,Bernal Heights
212-00290,12TH ST,29,37.773753601,-122.4193517991,Mission
328-01280,BEALE ST,128,37.7905317013,-122.3951866996,Financial District/South Beach
700-15120,VALENCIA ST,1512,37.7485371985,-122.4204263982,Mission
596-01070,OTIS ST,107,37.7715533095,-122.4201860073,Mission
224-39440,24TH ST,3944,37.7515272022,-122.4311283005,Noe Valley
568-10090,MISSION ST,1009,37.7806922019,-122.4089270976,South of Market
651-01030,SANSOME ST,103,37.7912970026,-122.4008505975,Financial District/South Beach
470-08324,HOWARD ST,840,37.7825062022,-122.4037981999,South of Market
568-37130,MISSION ST,3713,37.7369342026,-122.4240491015,Bernal Heights
361-05250,CLAYTON ST,525,37.770005001600005,-122.4486887005,Haight Ashbury
418-06090,FOLSOM ST,609,37.785243201,-122.3969303981,Financial District/South Beach
542-08230,LARKIN ST,823,37.7858427976,-122.4181127024,Tenderloin
568-14260,MISSION ST,1426,37.7746909995,-122.4167707988,South of Market
360-21210,CLEMENT ST,2121,37.7820539986,-122.4825200008,Outer Richmond
614-16240,POST ST,1624,37.7857351013,-122.4290136022,Japantown
666-12390,SUTTER ST,1239,37.7875742976,-122.4210617018,Nob Hill
470-10370,HOWARD ST,1037,37.778989200400005,-122.4079626982,South of Market
224-39070,24TH ST,3907,37.7514835995,-122.4300241021,Noe Valley
336-01260,BUSH ST,126,37.7912571997,-122.4005207975,Financial District/South Beach
331-05220,BRYANT ST,522,37.7809866973,-122.3964229018,South of Market
701-17120,VAN NESS AVE,1712,37.7916603022,-122.4224271027,Nob Hill
700-14040,VALENCIA ST,1404,37.7503135026,-122.4205964,Mission
203-06090,03RD ST,609,37.7800069981,-122.3940463026,Financial District/South Beach
363-09240,COLUMBUS AVE,924,37.803318099,-122.4143898019,North Beach
502-06200,JONES ST,620,37.787271398,-122.4131934975,Tenderloin
472-00640,HYDE ST,64,37.7810787027,-122.4153092017,Tenderloin
324-04250,BATTERY ST,425,37.7956426003,-122.4005416014,Chinatown
521-00460,KIRKHAM ST,46,37.760580702599995,-122.4614795015,Inner Sunset
666-00050,SUTTER ST,5,37.7901645013,-122.4007827991,Financial District/South Beach
561-02041,MAIN ST,204,37.7904274975,-122.3932908975,Financial District/South Beach
602-09040,PARIS ST,904,37.7154483002,-122.4396704992,Excelsior
360-22060,CLEMENT ST,2206,37.7821770002,-122.4829575976,Outer Richmond
400-01100,EDDY ST,110,37.7843612012,-122.4097164997,Tenderloin
664-03100,STOCKTON ST,310,37.7888274983,-122.4067679976,Financial District/South Beach
700-02500,VALENCIA ST,250,37.768605402599995,-122.4223523026,Mission
869-00230,TERRY A FRANCOIS BLVD,23,37.7764180013,-122.3887492974,Mission Bay
658-00050,SPEAR ST,5,37.7936691985,-122.3953484983,Financial District/South Beach
202-03340,02ND ST,334,37.7847870019,-122.3959087,Financial District/South Beach
701-13090,VAN NESS AVE,1309,37.7878562984,-122.4219833982,Western Addition
207-02450,07TH ST,245,37.777215399700005,-122.4082742983,South of Market
354-20180,CHESTNUT ST,2018,37.800786401100005,-122.4369645023,Marina
644-03260,RITCH ST,326,37.7791102015,-122.3942045026,South of Market
571-01150,MONTGOMERY ST,115,37.7904629976,-122.4023442973,Financial District/South Beach
440-05120,GEARY ST,512,37.7869278015,-122.4121138022,Tenderloin
666-08120,SUTTER ST,812,37.7885993827,-122.4140198512,Nob Hill
331-08410,BRYANT ST,841,37.775052499900006,-122.4036121999,South of Market
440-37100,GEARY BLVD,3710,37.7813795012,-122.4593263974,Inner Richmond
664-10310,STOCKTON ST,1031,37.7956756026,-122.4083068983,Chinatown
591-24150,OCEAN AVE,2415,37.730117301300005,-122.4698988998,West of Twin Peaks
823-00080,CHESTNUT ST,8,37.8049767994,-122.4039166977,Financial District/South Beach
490-24090,IRVING ST,2409,37.7631963984,-122.483858099,Sunset/Parkside
564-01010,MCCOPPIN ST,101,37.771504300500006,-122.4226909985,Mission
440-15020,GEARY BLVD,1502,37.7851087999,-122.4281976015,Japantown
203-00100,03RD ST,10,37.7872135014,-122.4033698008,Financial District/South Beach
203-47150,03RD ST,4715,37.735050599,-122.3904529975,Bayview Hunters Point
562-04150,MASON ST,415,37.7874860977,-122.4100072009,Tenderloin
350-33010,CALIFORNIA ST,3301,37.7869513993,-122.4486044009,Presidio Heights
350-24240,CALIFORNIA ST,2424,37.7888825004,-122.4346940012,Pacific Heights
612-17350,POLK ST,1735,37.7930758034,-122.4212715179,Russian Hill
724-00410,WILLOW ST,41,37.7836152007,-122.4186860022,Tenderloin
562-06140,MASON ST,614,37.7894023013,-122.4102539976,Nob Hill
360-23300,CLEMENT ST,2330,37.7821062011,-122.4844953974,Outer Richmond
923-00010,ULLOA ST,807,37.740507,-122.4652508998,West of Twin Peaks
612-23210,POLK ST,2321,37.7982795973,-122.4223183,Russian Hill
651-02190,SANSOME ST,219,37.7926985015,-122.4011378006,Financial District/South Beach
324-07280,BATTERY ST,728,37.7984128025,-122.4009374005,Financial District/South Beach
470-15470,HOWARD ST,1547,37.7721355975,-122.416466301,Mission
325-03003,BAY ST,300,37.805701202600005,-122.4123719984,North Beach
359-17260,CLAY ST,1726,37.7923481994,-122.4217525997,Russian Hill
916-00760,PIERCE ST,3252,37.800001402300005,-122.4391336997,Marina
352-12180,CASTRO ST,1218,37.7515528005,-122.4341878013,Noe Valley
725-01440,WEST PORTAL AVE,144,37.739100499900005,-122.467904398,West of Twin Peaks
350-24120,CALIFORNIA ST,2412,37.7889273995,-122.4343406984,Pacific Heights
611-04250,PARNASSUS AVE,425,37.763235201,-122.4584608988,Inner Sunset
440-56040,GEARY BLVD,5604,37.7804610011,-122.4796576982,Outer Richmond
686-02070,TURK ST,207,37.7829035995,-122.4127056987,Tenderloin
593-06360,O'FARRELL ST,636,37.7854822976,-122.415881898,Tenderloin
720-06240,WASHINGTON ST,624,37.7954472607,-122.4043980314,Chinatown
606-14610,PINE ST,1461,37.7895706993,-122.4203514026,Nob Hill
327-04240,BROADWAY,424,37.7981991072,-122.4046702123,North Beach
211-00810,11TH ST,81,37.7745528398,-122.4172516795,South of Market
324-03180,BATTERY ST,318,37.7946909972,-122.4001836997,Financial District/South Beach
326-08130,BEACH ST,813,37.8063032021,-122.4227588975,Russian Hill
549-23170,LOMBARD ST,2317,37.7992240981,-122.4400451982,Marina
202-03470,02ND ST,347,37.784663698500005,-122.3954481983,Financial District/South Beach
590-00240,OAK ST,24,37.775409798000005,-122.4200724975,Hayes Valley
214-02070,14TH ST,207,37.768328000699995,-122.4181702023,Mission
220-34520,20TH ST,3452,37.7586878006,-122.4189134983,Mission
651-03270,SANSOME ST,327,37.7937791021,-122.4013599993,Financial District/South Beach
328-02490,BEALE ST,249,37.7888698996,-122.3928018973,Financial District/South Beach
720-05830,WASHINGTON ST,583,37.7954898988,-122.4030567982,Chinatown
650-34040,SACRAMENTO ST,3404,37.7879892019,-122.4489602016,Presidio Heights
440-53020,GEARY BLVD,5302,37.7806089976,-122.4763826986,Outer Richmond
422-06320,FRONT ST,632,37.797592298,-122.3995532018,Financial District/South Beach
440-63100,GEARY BLVD,6310,37.7801061002,-122.4873348006,Outer Richmond
591-17370,OCEAN AVE,1737,37.7248166975,-122.4610122999,Oceanview/Merced/Ingleside
908-00080,GEARY BLVD,5732,37.7806503986,-122.4809575973,Outer Richmond
614-19240,POST ST,1924,37.785104799,-122.4339876023,Japantown
593-05130,O'FARRELL ST,513,37.7856783,-122.4134874006,Tenderloin
217-33140,17TH ST,3314,37.763449001,-122.4201928002,Mission
363-12010,COLUMBUS AVE,1201,37.805259101900006,-122.4175106024,Russian Hill
369-00340,CAMPTON PL,34,37.7890653991,-122.4064538998,Financial District/South Beach
650-08290,SACRAMENTO ST,829,37.7932180007,-122.4070718025,Chinatown
107-03220,07TH AVE,322,37.7822590982,-122.4653772989,Inner Richmond
210-02620,10TH ST,262,37.7728489981,-122.413016902,South of Market
109-03100,09TH AVE,310,37.7825716984,-122.4675430988,Inner Richmond
658-02230,SPEAR ST,223,37.7908323993,-122.3917919003,Financial District/South Beach
223-32040,23RD ST,3204,37.7539944992,-122.4167473015,Mission
445-01250,GREEN ST,129,37.800277022900005,-122.4023918904,Financial District/South Beach
442-04390,GOLDEN GATE AVE,439,37.7813145974,-122.4176790004,Tenderloin
575-04140,MAPLE ST,414,37.7868625008,-122.4552736019,Presidio Heights
657-27200,SAN BRUNO AVE,2720,37.7269432981,-122.4033912026,Portola
359-03240,CLAY ST,324,37.7951483027,-122.4000095014,Financial District/South Beach
352-04390,CASTRO ST,439,37.7612874982,-122.4349342992,Castro/Upper Market
691-21020,UNION ST,2102,37.7973351021,-122.4340444987,Marina
687-00630,TAPIA DR,63,37.7216308982,-122.4805780982,Lakeshore
404-00030,EXCELSIOR AVE,3,37.7262068026,-122.4334408005,Excelsior
470-11610,HOWARD ST,1161,37.77683189970001,-122.4106908009,South of Market
352-05120,CASTRO ST,512,37.7604031012,-122.4350549986,Castro/Upper Market
471-06760,HARRISON ST,676,37.7828017984,-122.3972262011,Financial District/South Beach
664-09310,STOCKTON ST,931,37.7948043988,-122.4081418027,Chinatown
363-01120,COLUMBUS AVE,112,37.7965580997,-122.4046241024,Chinatown
542-10140,LARKIN ST,1014,37.7875165016,-122.4182901976,Nob Hill
585-05320,NORTH POINT ST,532,37.8062642989,-122.4166366995,North Beach
213-01710,13TH ST,171,37.7694740974,-122.4167430994,Mission
359-17100,CLAY ST,1710,37.7924005025,-122.4213414003,Russian Hill
720-01140,WASHINGTON ST,114,37.7963097998,-122.3975671993,Financial District/South Beach
204-03200,04TH ST,320,37.7816050974,-122.4007917007,South of Market
681-25250,TAYLOR ST,2525,37.806102299,-122.4154505988,North Beach
331-06610,BRYANT ST,661,37.7783065,-122.3994958025,South of Market
568-33410,MISSION ST,3341,37.742994598,-122.4214447995,Bernal Heights
568-29040,MISSION ST,2904,37.7503991992,-122.4183555988,Mission
354-21290,CHESTNUT ST,2129,37.8004260016,-122.4388275982,Marina
400-02260,EDDY ST,226,37.784099602,-122.4118172002,Tenderloin
440-59230,GEARY BLVD,5923,37.7800180008,-122.4833584984,Outer Richmond
593-17080,OFARRELL ST,1708,37.78331956,-122.433026572,Western Addition
386-03050,DRUMM ST,305,37.7965438002,-122.3971016013,Financial District/South Beach
360-10300,CLEMENT ST,1030,37.7827418008,-122.4705178977,Inner Richmond
720-09170,WASHINGTON ST,917,37.7948190001,-122.4087383986,Chinatown
916-00930,PIERCE ST,3252,37.800058399200005,-122.4392407981,Marina
204-04330,04TH ST,433,37.7800947053,-122.3985909149,South of Market
650-36280,SACRAMENTO ST,3628,37.7874962007,-122.4528308974,Presidio Heights
650-08450,SACRAMENTO ST,845,37.7931579024,-122.4075657983,Chinatown
568-10780,MISSION ST,1078,37.779619201,-122.4105459002,South of Market
667-01390,SOUTH VAN NESS AVE,139,37.7717451059,-122.4180432167,Mission
568-17220,MISSION ST,1722,37.7692803972,-122.4201663022,Mission
211-02160,11TH ST,216,37.7726106,-122.4151102991,Mission
440-38100,GEARY BLVD,3810,37.7813293096,-122.4604376694,Inner Richmond
110-03120,10TH AVE,312,37.7824616999,-122.4686140993,Inner Richmond
847-05080,JEFFERSON ST,508,37.8076323987,-122.4209304021,Russian Hill
355-02370,CHURCH ST,237,37.7663446021,-122.4287310985,Castro/Upper Market
580-01070,NATOMA ST,107,37.7869756007,-122.3990126026,Financial District/South Beach
208-01050,08TH ST,105,37.7773353,-122.4128590987,South of Market
569-20640,MARKET ST,2064,37.7683867019,-122.4280428996,Castro/Upper Market
226-34140,26TH ST,3414,37.7490454995,-122.4188367982,Mission
330-04920,BRANNAN ST,492,37.7785324984,-122.3964178001,South of Market
324-01130,BATTERY ST,113,37.7925932975,-122.3999136013,Financial District/South Beach
616-11030,POWELL ST,1103,37.7948857983,-122.4098389984,Chinatown
205-06170,05TH ST,617,37.7762970001,-122.3982628972,South of Market
568-24160,MISSION ST,2416,37.7580920988,-122.4190918987,Mission
681-07230,TAYLOR ST,723,37.7895024986,-122.4121001006,Nob Hill
600-15240,PACIFIC AVE,1524,37.7951836017,-122.4207809975,Russian Hill
386-03180,DRUMM ST,318,37.7969996975,-122.3969979004,Financial District/South Beach
591-26420,OCEAN AVE,2642,37.732148001800006,-122.4740584975,West of Twin Peaks
568-28370,MISSION ST,2837,37.7511255023,-122.4182430019,Mission
350-35570,CALIFORNIA ST,3557,37.7863329993,-122.4530474019,Presidio Heights
446-00100,GROVE ST,10,37.778867400100005,-122.4153058992,Tenderloin
329-00030,BELVEDERE ST,3,37.7694624019,-122.4496721995,Haight Ashbury
331-06500,BRYANT ST,650,37.778692101,-122.3993317016,South of Market
725-03810,WEST PORTAL AVE,381,37.7367447995,-122.4702875016,West of Twin Peaks
614-06000,POST ST,600,37.7879210011,-122.4118464978,Nob Hill
108-03040,08TH AVE,304,37.7827390012,-122.4664898009,Inner Richmond
891-00270,TERRY A FRANCOIS BLVD,501,37.7700082985,-122.3858515003,Mission Bay
209-04110,09TH ST,411,37.7722985026,-122.4096290988,South of Market
339-01840,BERRY ST,184,37.7760590214,-122.3931238073,Mission Bay
684-01740,TOWNSEND ST,174,37.7794052926,-122.3922050106,Financial District/South Beach
471-06340,HARRISON ST,634,37.7836464987,-122.3961624985,Financial District/South Beach
568-25310,MISSION ST,2531,37.7561425016,-122.4187232011,Mission
722-15080,WEBSTER ST,1508,37.7850536973,-122.4311423988,Japantown
464-03260,HAYES ST,326,37.777041422500005,-122.4222284589,Hayes Valley
568-32460,MISSION ST,3246,37.7443647989,-122.4207874012,Bernal Heights
422-03170,FRONT ST,317,37.7948714987,-122.3991790001,Financial District/South Beach
331-05870,BRYANT ST,587,37.7797179007,-122.397708602,South of Market
542-07070,LARKIN ST,707,37.7845152997,-122.4178452023,Tenderloin
443-04300,GOUGH ST,430,37.777645703100006,-122.4230484143,Hayes Valley
720-05130,WASHINGTON ST,513,37.7955866986,-122.402290899,Chinatown
222-31310,22ND ST,3131,37.7554333982,-122.4178912022,Mission
224-27630,24TH ST,2763,37.7528225974,-122.4077706018,Mission
591-00040,OCEAN AVE,4,37.7239490018,-122.435638519,Outer Mission
216-31390,16TH ST,3139,37.7647726991,-122.4231417996,Mission
666-01200,SUTTER ST,120,37.7900014006,-122.4029022974,Financial District/South Beach
217-33100,17TH ST,3310,37.7634579976,-122.420044502,Mission
384-08260,DIVISADERO ST,826,37.7776021016,-122.4382196029,Western Addition
400-03190,EDDY ST,319,37.7837910027,-122.4132682976,Tenderloin
680-16230,TARAVAL ST,1623,37.7426038001,-122.4839641021,Sunset/Parkside
111-03960,11TH AVE,396,37.7810894986,-122.469584299,Inner Richmond
324-11050,BATTERY ST,1105,37.801565006100006,-122.4017277192,Financial District/South Beach
321-03150,BALBOA ST,315,37.7772373994,-122.4624093005,Inner Richmond
362-05230,COLE ST,523,37.7698419009,-122.4503367,Haight Ashbury
360-02200,CLEMENT ST,220,37.7831360017,-122.4619465021,Inner Richmond
443-04050,GOUGH ST,405,37.777080501300006,-122.4231049975,Hayes Valley
911-00110,08TH AVE,1325,37.7635640007,-122.465689698,Inner Sunset
591-19050,OCEAN AVE,1905,37.7252423976,-122.46242950090002,West of Twin Peaks
680-08080,TARAVAL ST,808,37.7431625993,-122.4750011989,West of Twin Peaks
571-06070,MONTGOMERY ST,607,37.794934999999995,-122.4032640995,Chinatown
210-04520,10TH ST,452,37.770491001100005,-122.4100610015,South of Market
383-00490,DIAMOND ST,49,37.7609662981,-122.437151402,Castro/Upper Market
440-57010,GEARY BLVD,5701,37.7801443999,-122.4806209018,Outer Richmond
442-05020,GOLDEN GATE AVE,502,37.7812865012,-122.4189643988,Tenderloin
720-06140,WASHINGTON ST,614,37.7954911002,-122.4040675999,Chinatown
650-33260,SACRAMENTO ST,3326,37.7881065988,-122.4480380022,Presidio Heights
422-06310,FRONT ST,631,37.7975085014,-122.3997085017,Financial District/South Beach
911-00134,08TH AVE,1325,37.7636682995,-122.4656521974,Inner Sunset
501-03110,JESSIE ST,311,37.7847759993,-122.4049142,South of Market
443-04070,GOUGH ST,407,37.7771350005,-122.4231160001,Hayes Valley
440-38180,GEARY BLVD,3818,37.7813198193,-122.4606480733,Inner Richmond
904-00050,09TH AVE,330,37.7822215975,-122.4672490002,Inner Richmond
568-45670,MISSION ST,4567,37.7248201006,-122.4345763975,Excelsior
440-58020,GEARY BLVD,5802,37.7803666991,-122.4817349014,Outer Richmond
469-17380,HOLLOWAY AVE,1738,37.7210091007,-122.480365399,Lakeshore
562-25180,MASON ST,2518,37.8071601008,-122.4138435979,North Beach
657-24070,SAN BRUNO AVE,2407,37.73217139850001,-122.4053879005,Portola
569-21360,MARKET ST,2136,37.7669358001,-122.4298776982,Castro/Upper Market
686-02460,TURK ST,246,37.7828728993,-122.4139316973,Tenderloin
336-14320,BUSH ST,1432,37.7886317977,-122.4213655011,Nob Hill
209-03360,09TH ST,336,37.7730384012,-122.4108623003,South of Market
567-00740,MINT ST,74,37.7825203006,-122.4076538977,South of Market
686-05380,TURK ST,538,37.7822808017,-122.4186207016,Tenderloin
911-00112,08TH AVE,1325,37.763560502699995,-122.4657509026,Inner Sunset
680-08100,TARAVAL ST,810,37.7431593024,-122.475074602,West of Twin Peaks
568-09840,MISSION ST,984,37.7812988003,-122.4084127002,South of Market
307-03070,ASH ST,307,37.7792166014,-122.4231941977,Hayes Valley
666-07420,SUTTER ST,742,37.7886934997,-122.4132737012,Nob Hill
540-29070,LAGUNA ST,2907,37.7979758986,-122.4306792987,Marina
614-12370,POST ST,1237,37.7863694997,-122.4229350013,Western Addition
591-10170,OCEAN AVE,1017,37.7232549981,-122.4535855984,Oceanview/Merced/Ingleside
472-03120,HYDE ST,312,37.783861399500005,-122.4158701019,Tenderloin
725-00410,WEST PORTAL AVE,41,37.7400633012,-122.4664268975,West of Twin Peaks
224-30070,24TH ST,3007,37.7525494982,-122.4123096985,Mission
127-04660,27TH AVE,466,37.7802948997,-122.4868356024,Outer Richmond
440-16460,GEARY BLVD,1646,37.7848340431,-122.4305237224,Japantown
667-12220,SOUTH VAN NESS AVE,1222,37.7533706006,-122.4164578018,Mission
470-05550,HOWARD ST,555,37.7874121972,-122.3972968996,Financial District/South Beach
336-05040,BUSH ST,504,37.7906077978,-122.4057440979,Financial District/South Beach
701-06270,VAN NESS AVE,627,37.781731775,-122.4207460395,Western Addition
571-07120,MONTGOMERY ST,712,37.7959458058,-122.403344951,Chinatown
359-24210,CLAY ST,2421,37.7907505025,-122.4334047974,Pacific Heights
593-01020,O'FARRELL ST,102,37.7866668002,-122.4065403004,Financial District/South Beach
651-07240,SANSOME ST,724,37.7973254015,-122.401923699,Chinatown
336-14280,BUSH ST,1428,37.7886491985,-122.4212288984,Nob Hill
350-07400,CALIFORNIA ST,740,37.7923673996,-122.4072012973,Chinatown
384-04190,DIVISADERO ST,419,37.7736959,-122.4376447999,Hayes Valley
591-25340,OCEAN AVE,2534,37.73157850170001,-122.4727904999,West of Twin Peaks
836-00040,FRANCISCO ST,4,37.80572590130001,-122.405558299,North Beach
225-33150,25TH ST,3315,37.7506822047,-122.4168046173,Mission
320-00320,BACON ST,32,37.7277410988,-122.4034034011,Portola
109-13200,09TH AVE,1320,37.7634955988,-122.4661930983,Inner Sunset
471-10310,HARRISON ST,1031,37.7765073021,-122.4048771017,South of Market
667-00100,SOUTH VAN NESS AVE,10,37.7744962991,-122.4192130004,Mission
689-01120,TEHAMA ST,112,37.7860521239,-122.3981205845,Financial District/South Beach
211-00710,11TH ST,71,37.7747276005,-122.4174707995,South of Market
700-16810,VALENCIA ST,1681,37.7459581422,-122.4199627051,Bernal Heights
363-05080,COLUMBUS AVE,508,37.7998676998,-122.4093998984,North Beach
686-03380,TURK ST,338,37.7826966,-122.4153446012,Tenderloin
208-02650,08TH ST,265,37.775268602100006,-122.4102709011,South of Market
561-00180,MAIN ST,18,37.7925483984,-122.3959455022,Financial District/South Beach
720-04270,WASHINGTON ST,427,37.7957339016,-122.400982998,Chinatown
666-02050,SUTTER ST,205,37.7897294023,-122.4041998998,Financial District/South Beach
903-00160,08TH AVE,324,37.7825427026,-122.4658870024,Inner Richmond
614-16020,POST ST,1602,37.7858210997,-122.4283417982,Japantown
324-01020,BATTERY ST,102,37.7923737028,-122.3997067974,Financial District/South Beach
819-00140,BROADWAY,14,37.798999899,-122.3984575027,Financial District/South Beach
463-01190,HAWTHORNE ST,119,37.7842106008,-122.3971522001,Financial District/South Beach
701-06080,VAN NESS AVE,608,37.7813416989,-122.420341199,Tenderloin
206-02270,06TH ST,227,37.779289802300006,-122.4064447191,South of Market
224-39290,24TH ST,3929,37.7514523015,-122.4305432995,Noe Valley
568-20210,MISSION ST,2021,37.7643735976,-122.4195112006,Mission
720-08260,WASHINGTON ST,826,37.7950631984,-122.4074204003,Chinatown
340-00649,BLUXOME ST,64,37.776411602,-122.3975218143,South of Market
815-13180,BATTERY ST,1318,37.803620998700005,-122.4019773991,Financial District/South Beach
329-00050,BELVEDERE ST,5,37.7694098976,-122.4496614986,Haight Ashbury
444-15280,GRANT AVE,1528,37.8013763976,-122.4076797978,North Beach
520-10210,KEARNY ST,1021,37.7976353028,-122.405509399,North Beach
680-09070,TARAVAL ST,907,37.7429533981,-122.4760054012,Sunset/Parkside
339-01500,BERRY ST,150,37.7765714013,-122.3924758022,Mission Bay
908-00010,GEARY BLVD,5732,37.7804462992,-122.4809341,Outer Richmond
321-32260,BALBOA ST,3226,37.7759369974,-122.4939772019,Outer Richmond
490-24350,IRVING ST,2435,37.7631740019,-122.4843678025,Sunset/Parkside
210-03230,10TH ST,323,37.7723681004,-122.4121212007,South of Market
440-59090,GEARY BLVD,5909,37.7800361001,-122.4829583017,Outer Richmond
411-01140,FELL ST,114,37.776362200200005,-122.4200838019,Hayes Valley
837-10120,FRONT ST,1012,37.8010913012,-122.4002601986,Financial District/South Beach
720-03411,WASHINGTON ST,341,37.7958672018,-122.4001537987,Financial District/South Beach
847-02170,JEFFERSON ST,217,37.808075997,-122.4164942016,North Beach
664-12180,STOCKTON ST,1218,37.7971818027,-122.4084447023,Chinatown
562-06260,MASON ST,626,37.7896783006,-122.4103099999,Nob Hill
208-01530,08TH ST,153,37.7765189976,-122.4118320976,South of Market
472-06160,HYDE ST,616,37.7867813975,-122.4164660999,Tenderloin
663-15220,STEINER ST,1522,37.7837087986,-122.4344091003,Western Addition
611-00640,PARNASSUS AVE,64,37.764934900099995,-122.4496555978,Haight Ashbury
472-03310,HYDE ST,331,37.7842790027,-122.4161099025,Tenderloin
386-02045,DRUMM ST,204,37.7956682992,-122.3966678993,Financial District/South Beach
440-52120,GEARY BLVD,5212,37.7806450006,-122.4755879992,Outer Richmond
104-02810,04TH AVE,281,37.7834834986,-122.4623817017,Inner Richmond
689-01080,TEHAMA ST,108,37.7860964005,-122.3980644976,Financial District/South Beach
585-02220,NORTH POINT ST,222,37.806918702,-122.4114084986,North Beach
616-17090,POWELL ST,1709,37.80050170130001,-122.4109633022,Chinatown
209-03070,09TH ST,307,37.77364130030001,-122.4113134981,South of Market
701-07220,VAN NESS AVE,722,37.7826320984,-122.4206020997,Tenderloin
568-51550,MISSION ST,5155,37.7161812072,-122.4411123153,Excelsior
202-07070,02ND ST,707,37.7804649015,-122.3902172984,Mission Bay
328-01360,BEALE ST,136,37.7904041008,-122.3950267003,Financial District/South Beach
666-20030,SUTTER ST,2003,37.7860134979,-122.4334133973,Japantown
614-22030,POST ST,2203,37.7844428019,-122.4381787998,Japantown
568-31140,MISSION ST,3114,37.7476885979,-122.4186413993,Bernal Heights
205-03330,05TH ST,333,37.779694800200005,-122.4025235024,South of Market
546-02140,LEAVENWORTH ST,214,37.7833022986,-122.4140758996,Tenderloin
841-00180,GREEN ST,18,37.8007433013,-122.3996828978,Financial District/South Beach
681-27050,TAYLOR ST,2705,37.8074873974,-122.4157276989,North Beach
327-03380,BROADWAY,338,37.7983512011,-122.4034977981,North Beach
700-05360,VALENCIA ST,536,37.7639250987,-122.4218998027,Mission
119-03960,19TH AVE,396,37.780676701,-122.4782558025,Outer Richmond
606-16380,PINE ST,1638,37.7893106983,-122.4234681015,Western Addition
445-00810,GREEN ST,81,37.8004824006,-122.4007668008,Financial District/South Beach
209-01180,09TH ST,118,37.7758180068,-122.4143491164,South of Market
440-34200,GEARY BLVD,3420,37.7815145002,-122.4563297999,Presidio Heights
665-00080,STEUART ST,8,37.7941454974,-122.3944652022,Financial District/South Beach
569-22250,MARKET ST,2225,37.765212799299995,-122.4316151996,Castro/Upper Market
217-14050,17TH ST,1405,37.7650240531,-122.3980546037,Potrero Hill
218-41090,18TH ST,4109,37.7608126019,-122.435396902,Castro/Upper Market
701-21190,VAN NESS AVE,2119,37.7953308019,-122.4234941208,Pacific Heights
916-00800,PIERCE ST,3252,37.80019229730001,-122.4391029996,Marina
820-01110,BRYANT ST,111,37.7865160991,-122.389140302,Financial District/South Beach
219-34190,19TH ST,3419,37.7601366014,-122.4200650991,Mission
666-05070,SUTTER ST,507,37.7891214014,-122.4089202021,Nob Hill
911-00380,08TH AVE,1325,37.763680397399995,-122.4655072016,Inner Sunset
336-15190,BUSH ST,1519,37.7883228016,-122.4227250011,Western Addition
208-05290,08TH ST,529,37.772045497700006,-122.4062314999,South of Market
443-08040,GOUGH ST,804,37.7807569996,-122.4236750004,Western Addition
657-24380,SAN BRUNO AVE,2438,37.7314850994,-122.4052713026,Portola
333-14070,BAY SHORE BLVD,1407,37.7265506397,-122.4017037154,Bayview Hunters Point
470-08690,HOWARD ST,869,37.7819613003,-122.4042007995,South of Market
470-08130,HOWARD ST,813,37.7828651992,-122.4030567982,South of Market
360-09380,CLEMENT ST,938,37.7827839003,-122.4696069022,Inner Richmond
352-05450,CASTRO ST,545,37.7595859781,-122.434776024,Castro/Upper Market
549-21040,LOMBARD ST,2104,37.7999168009,-122.4363408999,Marina
680-07090,TARAVAL ST,709,37.7430412014,-122.4740053003,West of Twin Peaks
104-03910,04TH AVE,391,37.7814175998,-122.4622321015,Inner Richmond
821-05030,BEALE ST,503,37.7860718024,-122.3893181995,Financial District/South Beach
614-22380,POST ST,2238,37.7844142978,-122.4394667016,Japantown
568-00500,MISSION ST,50,37.7927362983,-122.3939326999,Financial District/South Beach
658-01970,SPEAR ST,197,37.7914685019,-122.3925893993,Financial District/South Beach
591-25030,OCEAN AVE,2503,37.731233999900006,-122.4724448973,West of Twin Peaks
339-01320,BERRY ST,132,37.776896898500006,-122.3920617026,Mission Bay
415-23140,FILLMORE ST,2314,37.7911873002,-122.4342311022,Pacific Heights
440-00330,GEARY ST,33,37.7877490994,-122.4047424995,Financial District/South Beach
440-07200,GEARY ST,720,37.7864776988,-122.4156204999,Tenderloin
350-36380,CALIFORNIA ST,3638,37.7863209014,-122.4547594001,Presidio Heights
207-02470,07TH ST,247,37.7771728978,-122.4082210005,South of Market
502-03220,JONES ST,322,37.7845286996,-122.4126357992,Tenderloin
520-05180,KEARNY ST,516,37.7932643973,-122.404468998,Financial District/South Beach
606-16050,PINE ST,1605,37.7892930013,-122.4225392022,Western Addition
500-07240,JACKSON ST,724,37.7959669017,-122.4074391981,Chinatown
419-11120,FRANKLIN ST,1112,37.7849602,-122.4228347984,Western Addition
380-00160,DAVIS ST,16,37.7931917989,-122.3974648003,Financial District/South Beach
226-34008,26TH ST,3400,37.748994,-122.419683,Mission
446-00820,GROVE ST,82,37.778661702700006,-122.4176468977,Tenderloin
404-00100,EXCELSIOR AVE,10,37.7259959978,-122.4332392995,Excelsior
360-06060,CLEMENT ST,606,37.7829570983,-122.4658399017,Inner Richmond
500-16034,JACKSON ST,1603,37.7940578003,-122.4216582027,Russian Hill
571-05230,MONTGOMERY ST,523,37.7943336991,-122.4031425004,Chinatown
202-01570,02ND ST,157,37.7870492999,-122.3984612019,Financial District/South Beach
520-04190,KEARNY ST,419,37.7922922027,-122.4044334979,Financial District/South Beach
823-00380,CHESTNUT ST,38,37.8048335024,-122.4050546025,North Beach
330-03220,BRANNAN ST,322,37.7814893992,-122.3926746991,Financial District/South Beach
666-01170,SUTTER ST,117,37.7899119993,-122.4027701986,Financial District/South Beach
612-14220,POLK ST,1422,37.7901465976,-122.4205214993,Nob Hill
440-24150,GEARY BLVD,2415,37.7826658999,-122.4434328002,Lone Mountain/USF
568-47090,MISSION ST,4709,37.7228773989,-122.4360480027,Excelsior
321-34240,BALBOA ST,3424,37.7758548994,-122.4957730023,Outer Richmond
211-03110,11TH ST,311,37.7716328007,-122.4135909003,South of Market
354-24060,CHESTNUT ST,2406,37.7999965017,-122.4431895015,Marina
614-10080,POST ST,1008,37.7870590006,-122.4186423996,Nob Hill
691-21030,UNION ST,2103,37.797208798,-122.4340593011,Marina
687-00590,TAPIA DR,59,37.7216500983,-122.480577098,Lakeshore
220-34450,20TH ST,3445,37.7586077981,-122.4186870025,Mission
354-21350,CHESTNUT ST,2135,37.800400302700005,-122.4390305017,Marina
388-04050,DE HARO ST,405,37.764665524,-122.4014959677,Potrero Hill
916-00380,PIERCE ST,3252,37.7999098998,-122.4389904027,Marina
445-05230,GREEN ST,523,37.7995423981,-122.4082892013,North Beach
831-07120,EMBARCADERO SOUTH,712,37.781425199400005,-122.3885373973,Mission Bay
614-12100,POST ST,1210,37.7866126978,-122.4220750013,Western Addition
440-12110,GEARY BLVD,1211,37.7853602012,-122.4235099998,Western Addition
644-03440,RITCH ST,344,37.7787495003,-122.3937526007,South of Market
690-08340,ULLOA ST,834,37.740840700300005,-122.4655534027,West of Twin Peaks
705-01260,VALLEJO ST,126,37.7996380066,-122.4009060189,Financial District/South Beach
908-00070,GEARY BLVD,5732,37.7806281977,-122.4809525011,Outer Richmond
423-01250,FULTON ST,125,37.779589797300005,-122.4155945999,Tenderloin
326-02300,BEACH ST,230,37.8076192,-122.4133353026,North Beach
470-13010,HOWARD ST,1301,37.7748229978,-122.4132369996,South of Market
725-03610,WEST PORTAL AVE,361,37.7370337014,-122.4699962025,West of Twin Peaks
562-05200,MASON ST,520,37.7886115023,-122.4100931992,Nob Hill
840-22050,GRANT AVE,2205,37.8073954982,-122.4089855977,North Beach
443-00540,GOUGH ST,54,37.7729325992,-122.4216553026,Mission
470-15090,HOWARD ST,1509,37.772814000900006,-122.4157741011,Mission
591-19290,OCEAN AVE,1929,37.7255399999,-122.4632133988,West of Twin Peaks
720-18090,WASHINGTON ST,1809,37.7929337983,-122.4233630986,Pacific Heights
542-30090,LARKIN ST,3009,37.8058616993,-122.4221482982,Russian Hill
580-00990,NATOMA ST,99,37.7872875974,-122.3986366016,Financial District/South Beach
684-06770,TOWNSEND ST,677,37.7703554992,-122.403356401,Mission Bay
323-00110,BARTLETT ST,11,37.7566638493,-122.4199056314,Mission
830-14220,EMBARCADERO NORTH,1422,37.8071871017,-122.4064271,North Beach
847-00210,JEFFERSON ST,21,37.8084828992,-122.4132112001,North Beach
400-05090,EDDY ST,509,37.7834073015,-122.4162539986,Tenderloin
440-38230,GEARY BLVD,3823,37.7810402018,-122.4608101004,Inner Richmond
204-03590,04TH ST,359,37.7812042021,-122.3999834002,South of Market
520-02150,KEARNY ST,215,37.7904159025,-122.4040468016,Financial District/South Beach
520-08050,KEARNY ST,805,37.7955665988,-122.4050955006,Chinatown
324-03030,BATTERY ST,303,37.7942653027,-122.4002574996,Chinatown
